IRIDIUM 7               
1 24793U 97020B   25334.43849663  .00000480  00000+0  15833-3 0  9997
2 24793  86.3944 107.2560 0001737  89.1140 271.0256 14.36087774495753
IRIDIUM 5               
1 24795U 97020D   25334.48537327  .00005276  00000+0  41716-3 0  9992
2 24795  86.3895   6.9356 0102244 260.3578  98.6090 14.96323257510315
IRIDIUM 4               
1 24796U 97020E   25334.59620455  .00000482  00000+0  15608-3 0  9995
2 24796  86.3941 103.9548 0001990  90.1631 269.9795 14.36992930496361
IRIDIUM 914             
1 24836U 97030A   25334.48007733  .00000552  00000+0  16561-3 0  9994
2 24836  86.3921 112.1171 0003106  65.4748 294.6776 14.41046898631075
IRIDIUM 16              
1 24841U 97030F   25334.55122298  .00000542  00000+0  16970-3 0  9995
2 24841  86.4024 135.4381 0001106 170.7757 189.3462 14.38866504490924
IRIDIUM 911             
1 24842U 97030G   25334.48254733  .00000718  00000+0  18854-3 0  9996
2 24842  86.4447 134.0542 0012093 262.1230  97.8601 14.47865316499148
IRIDIUM 17              
1 24870U 97034B   25334.56992924  .00000475  00000+0  15074-3 0  9992
2 24870  86.3972 164.8514 0002349 131.6668 228.4731 14.38005118487496
IRIDIUM 920             
1 24871U 97034C   25334.53251484  .00000539  00000+0  15929-3 0  9999
2 24871  86.3971 143.7239 0009570 249.4437 110.5736 14.41707694490549
